QIANFAN-73              
1 63159U 25046A   26024.48847605  .00000293  00000+0  43515-3 0  9991
2 63159  88.9796 315.6059 0015750   7.2821 352.8556 13.50993762 53186
QIANFAN-74              
1 63160U 25046B   26024.47197088  .00000293  00000+0  43543-3 0  9996
2 63160  88.9796 315.4965 0001839  68.8251 291.3096 13.50991069 53246
QIANFAN-75              
1 63161U 25046C   26024.45911264  .00000150  00000+0  21329-3 0  9995
2 63161  88.9798 315.7320 0017042   9.7495 350.3983 13.50989770 53117
QIANFAN-76              
1 63162U 25046D   26024.45573892  .00000305  00000+0  45306-3 0  9990
2 63162  88.9796 315.7127 0014639  11.2798 348.8679 13.50996683 53120
QIANFAN-77              
1 63163U 25046E   26024.47393671  .00000730  00000+0  52161-3 0  9997
2 63163  88.9795 313.3675 0013696 315.0235  44.9832 13.96136004 54416
QIANFAN-78              
1 63164U 25046F   26024.49665576  .00000308  00000+0  45827-3 0  9998
2 63164  88.9795 315.5720 0016066  12.6594 347.4958 13.50995753 53204
QIANFAN-79              
1 63165U 25046G   26024.37719873  .00000302  00000+0  44961-3 0  9998
2 63165  88.9799 315.6935 0015742  11.5265 348.6243 13.50992713 53136
QIANFAN-80              
1 63166U 25046H   26024.46778287  .00000309  00000+0  46019-3 0  9996
2 63166  88.9797 315.3900 0014805  15.6290 344.5315 13.50995525 53304
